BLUEBON                 
1 62688U 25009CH  26068.70316231  .00010452  00000+0  37313-3 0  9992
2 62688  97.4017 152.2033 0001193  43.3900 316.7434 15.29047253 63767
STARLINK-35907          
1 66498U 25263P   26068.14666816  .00038614  00000+0  14046-2 0  9999
2 66498  42.9992 353.9595 0000409 309.0303  51.0512 15.27597703 18818
